[{"OBJECT_NAME":"CALSPHERE 2","OBJECT_ID":"1964-063E","EPOCH":"2026-03-09T23:58:10.507872","MEAN_MOTION":13.52891714,"ECCENTRICITY":0.00195058,"INCLINATION":90.2283,"RA_OF_ASC_NODE":73.4416,"ARG_OF_PERICENTER":150.0802,"MEAN_ANOMALY":268.5651,"EPHEMERIS_TYPE":0,"CLASSIFICATION_TYPE":"U","NORAD_CAT_ID":902,"ELEMENT_SET_NO":999,"REV_AT_EPOCH":84285,"BSTAR":4.6762277e-5,"MEAN_MOTION_DOT":4.0e-7,"MEAN_MOTION_DDOT":0},{"OBJECT_NAME":"COSMOS 970 DEB","OBJECT_ID":"1977-121CN","EPOCH":"2026-03-07T02:25:55.319808","MEAN_MOTION":13.71232387,"ECCENTRICITY":0.01100142,"INCLINATION":65.7687,"RA_OF_ASC_NODE":201.4124,"ARG_OF_PERICENTER":86.7927,"MEAN_ANOMALY":89.5429,"EPHEMERIS_TYPE":0,"CLASSIFICATION_TYPE":"U","NORAD_CAT_ID":64977,"ELEMENT_SET_NO":999,"REV_AT_EPOCH":61455,"BSTAR":0.00047396867,"MEAN_MOTION_DOT":3.64e-6,"MEAN_MOTION_DDOT":0}]
